GLOBALSTAR M001         
1 25162U 98008A   24271.58961405 -.00000095  00000+0  15131-4 0  9994
2 25162  52.0066  17.5267 0002021  74.1375 299.2665 12.38194325211187
GLOBALSTAR M004         
1 25163U 98008B   24271.82017162 -.00000066  00000+0  21120-3 0  9996
2 25163  51.9985 134.5593 0003887  69.9850  28.9312 12.63373096228523
GLOBALSTAR M002         
1 25164U 98008C   24271.08735874 -.00000087  00000+0 -20759-3 0  9993
2 25164  52.0002 179.8812 0002033  34.9067 325.1886 11.61503950153498
GLOBALSTAR M014         
1 25306U 98023A   24271.84539696 -.00000041  00000+0  69072-3 0  9996
2 25306  51.9814 106.7201 0000405 152.4036 220.8310 11.65472054160584
GLOBALSTAR M015         
1 25308U 98023C   24271.31393650 -.00000040  00000+0  76424-3 0  9996
2 25308  51.9801 237.1363 0012747 330.5023 178.9328 11.48851066163868
GLOBALSTAR M008         
1 25309U 98023D   24271.36899853 -.00000070  00000+0  20264-3 0  9992
2 25309  51.9954 240.0221 0002706 349.7866 176.1777 12.36049860205342
